1 28654U 05018A   24329.13366097  .00000456  00000-0  26586-3 0  9999
2 28654  98.8628  44.6881 0013611 333.2092  26.8376 14.13429176  5851
